[{"state":"OH","stars":"5.0","rating":"82","businessName":"\"Express Deli \"","city":"Brook Park","zip":"44142"},{"state":"OH","stars":"4.0","rating":"35","businessName":"\"Cap'n Taco Restaurants\"","city":"Brookpark","zip":"44142"},{"state":"OH","stars":"4.0","rating":"11","businessName":"\"Romeo's Pizza\"","city":"Brook Park","zip":"44142"},{"state":"OH","stars":"4.0","rating":"16","businessName":"\"Garden Restaurant\"","city":"Brook Park","zip":"44142"},{"state":"OH","stars":"4.0","rating":"41","businessName":"\"Goody's Restaurant\"","city":"Brook Park","zip":"44142"},{"state":"OH","stars":"4.0","rating":"8","businessName":"\"Reddi's Pizza & Spaghetti\"","city":"Brook Park","zip":"44142"},{"state":"OH","stars":"3.5","rating":"4","businessName":"\"Henry's Bar & Grill\"","city":"Brook Park","zip":"44142"},{"state":"OH","stars":"3.5","rating":"8","businessName":"\"Nak's Eatery & Drinkery\"","city":"Brook Park","zip":"44142"},{"state":"OH","stars":"3.5","rating":"3","businessName":"\"Paponetti's Pizza Ribs & Spirits\"","city":"Brook Park","zip":"44142"},{"state":"OH","stars":"3.5","rating":"4","businessName":"\"Hong Kong Restaurant\"","city":"Brook Park","zip":"44142"},{"state":"OH","stars":"3.0","rating":"5","businessName":"\"Taco Bell\"","city":"Brook Park","zip":"44142"},{"state":"OH","stars":"3.0","rating":"4","businessName":"\"Subway\"","city":"Brookpark","zip":"44142"},{"state":"OH","stars":"2.5","rating":"38","businessName":"\"Donte's Restaurant & Pizza Shop\"","city":"Berea","zip":"44142"},{"state":"OH","stars":"2.5","rating":"6","businessName":"\"Kicker's Pizza & More\"","city":"Cleveland","zip":"44142"},{"state":"OH","stars":"1.0","rating":"3","businessName":"\"Burger King\"","city":"Brook Park","zip":"44142"}]