[{"state":"PA","city":"Pittsburgh","zip":"15219"},{"state":"PA","city":"Pittsburgh","zip":"15241"},{"state":"PA","city":"Pittsburgh","zip":"15205"},{"state":"PA","city":"Pittsburgh","zip":"15212"},{"state":"PA","city":"Pittsburgh","zip":"15232"},{"state":"PA","city":"Pittsburgh","zip":"15233"},{"state":"PA","city":"Pittsburgh","zip":"15231"},{"state":"PA","city":"Pittsburgh","zip":"15275"},{"state":"PA","city":"Pittsburgh","zip":"15227"},{"state":"PA","city":"Pittsburgh","zip":"15225"},{"state":"PA","city":"Pittsburgh","zip":"15235"},{"state":"PA","city":"Pittsburgh","zip":"15215"},{"state":"PA","city":"Pittsburgh","zip":"15211"},{"state":"PA","city":"Pittsburgh","zip":"15236"},{"state":"PA","city":"Pittsburgh","zip":"15234"},{"state":"PA","city":"Pittsburgh","zip":"15206"},{"state":"PA","city":"Pittsburgh","zip":"15228"},{"state":"PA","city":"Pittsburgh","zip":"15207"},{"state":"PA","city":"Pittsburgh","zip":"15223"},{"state":"PA","city":"Pittsburgh","zip":"15226"},{"state":"PA","city":"Pittsburgh","zip":"15209"},{"state":"PA","city":"Pittsburgh","zip":"15202"},{"state":"PA","city":"Pittsburgh","zip":"15218"},{"state":"PA","city":"Pittsburgh","zip":"15208"},{"state":"PA","city":"Pittsburgh","zip":"15238"},{"state":"PA","city":"Pittsburgh","zip":"15229"},{"state":"PA","city":"Pittsburgh","zip":"15120"},{"state":"PA","city":"Pittsburgh","zip":"15214"},{"state":"PA","city":"Pittsburgh","zip":"15239"},{"state":"PA","city":"Pittsburgh","zip":"15221"},{"state":"PA","city":"Pittsburgh","zip":"15289"},{"state":"PA","city":"Pittsburgh","zip":"15210"},{"state":"PA","city":"Pittsburgh","zip":"15104"},{"state":"PA","city":"Pittsburgh","zip":"15108"},{"state":"PA","city":"Pittsburgh","zip":"15136"},{"state":"PA","city":"Pittsburgh","zip":"15204"},{"state":"PA","city":"Pittsburgh","zip":"15122"},{"state":"PA","city":"Pittsburgh","zip":"15260"},{"state":"PA","city":"Pittsburgh","zip":"15240"},{"state":"PA","city":"Pittsburgh","zip":"15243"},{"state":"PA","city":"Pittsburgh","zip":"15101"}]